NORAD_CAT_ID,OBJECT_NAME,OBJECT_TYPE,EPOCH,MEAN_MOTION,ECCENTRICITY,INCLINATION,RA_OF_ASC_NODE,ARG_OF_PERICENTER,MEAN_ANOMALY,BSTAR,MEAN_MOTION_DOT,MEAN_MOTION_DDOT,TLE_LINE0,TLE_LINE1,TLE_LINE2,SEMIMAJOR_AXIS,PERIOD,APOGEE,PERIGEE,DECAYED
53902.0,STARLINK-5021,PAYLOAD,2024-03-27 13:40:44,15.08829203,0.0001194,53.217,230.7023,88.723,271.3899,6.7663e-05,7.89e-06,0.0,0 STARLINK-5021,1 53902U 22119S   24087.56995791  .00000789  00000-0  67663-4 0  9992,2 53902  53.2170 230.7023 0001194  88.7230 271.3899 15.08829203 84884,6917.913,95.438,540.604,538.952,0.0
53902.0,STARLINK-5021,PAYLOAD,2024-03-27 18:26:52,15.0884432,0.0001187,53.2163,229.8119,94.3562,265.7566,0.00015887,2.242e-05,0.0,0 STARLINK-5021,1 53902U 22119S   24087.76866693  .00002242  00000-0  15887-3 0  9998,2 53902  53.2163 229.8119 0001187  94.3562 265.7566 15.08844320 84496,6917.867,95.437,540.553,538.911,0.0
53902.0,STARLINK-5021,PAYLOAD,2024-03-28 02:23:47,15.08856371,0.0001258,53.2167,228.324,73.0664,287.0466,0.00019151,2.763e-05,0.0,0 STARLINK-5021,1 53902U 22119S   24088.09985734  .00002763  00000-0  19151-3 0  9999,2 53902  53.2167 228.3240 0001258  73.0664 287.0466 15.08856371 84546,6917.83,95.437,540.566,538.825,0.0
53902.0,STARLINK-5021,PAYLOAD,2024-03-28 18:17:41,15.08826451,0.0001295,53.2175,225.3503,82.0969,278.017,0.0001854,2.663e-05,0.0,0 STARLINK-5021,1 53902U 22119S   24088.76228176  .00002663  00000-0  18540-3 0  9993,2 53902  53.2175 225.3503 0001295  82.0969 278.0170 15.08826451 84642,6917.922,95.438,540.683,538.891,0.0
53902.0,STARLINK-5021,PAYLOAD,2024-03-29 14:57:41,15.08839551,9.83e-05,53.2186,221.4875,85.2395,274.871,6.35e-05,7.23e-06,0.0,0 STARLINK-5021,1 53902U 22119S   24089.62339869  .00000723  00000-0  63500-4 0  9993,2 53902  53.2186 221.4875 0000983  85.2395 274.8710 15.08839551 85194,6917.882,95.438,540.427,539.067,0.0
53902.0,STARLINK-5021,PAYLOAD,2024-03-29 18:08:27,15.08849609,0.0001317,53.2165,220.8928,90.5855,269.5288,3.1109e-05,2.07e-06,0.0,0 STARLINK-5021,1 53902U 22119S   24089.75587296  .00000207  00000-0  31109-4 0  9993,2 53902  53.2165 220.8928 0001317  90.5855 269.5288 15.08849609 84796,6917.851,95.437,540.627,538.805,0.0
53902.0,STARLINK-5021,PAYLOAD,2024-03-30 14:48:28,15.08832249,0.0001543,53.2148,217.0261,93.4045,266.7123,4.7735e-05,4.72e-06,0.0,0 STARLINK-5021,1 53902U 22119S   24090.61700198  .00000472  00000-0  47735-4 0  9994,2 53902  53.2148 217.0261 0001543  93.4045 266.7123 15.08832249 85340,6917.904,95.438,540.837,538.702,0.0
53902.0,STARLINK-5021,PAYLOAD,2024-03-30 17:59:15,15.0883582,0.0001706,53.2148,216.4305,99.3393,260.7792,2.2906e-05,7.6e-07,0.0,0 STARLINK-5021,1 53902U 22119S   24090.74948095  .00000076  00000-0  22906-4 0  9991,2 53902  53.2148 216.4305 0001706  99.3393 260.7792 15.08835820 84943,6917.893,95.438,540.938,538.578,0.0
53902.0,STARLINK-5021,PAYLOAD,2024-03-31 01:56:10,15.08843768,0.000177,53.2172,214.9443,102.456,257.663,9.2767e-05,1.189e-05,0.0,0 STARLINK-5021,1 53902U 22119S   24091.08067527  .00001189  00000-0  92767-4 0  9999,2 53902  53.2172 214.9443 0001770 102.4560 257.6630 15.08843768 84990,6917.869,95.437,540.958,538.509,0.0
53902.0,STARLINK-5021,PAYLOAD,2024-03-31 14:39:15,15.08846498,0.0001566,53.2173,212.5677,90.7503,269.3669,0.00011799,1.591e-05,0.0,0 STARLINK-5021,1 53902U 22119S   24091.61059194  .00001591  00000-0  11799-3 0  9991,2 53902  53.2173 212.5677 0001566  90.7503 269.3669 15.08846498 85494,6917.861,95.437,540.809,538.642,0.0
53902.0,STARLINK-5021,PAYLOAD,2024-04-01 11:19:16,15.08831667,0.0001942,53.2174,208.6983,116.3501,243.7691,7.0182e-05,8.29e-06,0.0,0 STARLINK-5021,1 53902U 22119S   24092.47171937  .00000829  00000-0  70182-4 0  9991,2 53902  53.2174 208.6983 0001942 116.3501 243.7691 15.08831667 85204,6917.906,95.438,541.114,538.427,0.0
53902.0,STARLINK-5021,PAYLOAD,2024-04-01 14:30:03,15.08826304,0.0001301,53.2178,208.1015,107.049,253.0644,9.9137e-05,1.29e-05,0.0,0 STARLINK-5021,1 53902U 22119S   24092.60420195  .00001290  00000-0  99137-4 0  9993,2 53902  53.2178 208.1015 0001301 107.0490 253.0644 15.08826304 85644,6917.922,95.438,540.687,538.887,0.0
53902.0,STARLINK-5021,PAYLOAD,2024-04-02 00:02:21,15.08839764,0.0001433,53.2186,206.322,100.5305,259.5849,4.2997e-05,3.96e-06,0.0,0 STARLINK-5021,1 53902U 22119S   24093.00163538  .00000396  00000-0  42997-4 0  9991,2 53902  53.2186 206.3220 0001433 100.5305 259.5849 15.08839764 85282,6917.881,95.438,540.737,538.755,0.0
53902.0,STARLINK-5021,PAYLOAD,2024-04-02 11:10:04,15.08827083,0.0001323,53.2195,204.2425,97.4302,262.684,1.9351e-05,2e-07,0.0,0 STARLINK-5021,1 53902U 22119S   24093.46532565  .00000020  00000-0  19351-4 0  9993,2 53902  53.2195 204.2425 0001323  97.4302 262.6840 15.08827083 85350,6917.92,95.438,540.7,538.87,0.0
53902.0,STARLINK-5021,PAYLOAD,2024-04-02 14:20:50,15.08836147,0.0001549,53.2191,203.6492,98.1271,261.9897,-2.1904e-05,-6.37e-06,0.0,0 STARLINK-5021,1 53902U 22119S   24093.59780266 -.00000637  00000-0 -21904-4 0  9993,2 53902  53.2191 203.6492 0001549  98.1271 261.9897 15.08836147 85799,6917.892,95.438,540.829,538.686,0.0
53902.0,STARLINK-5021,PAYLOAD,2024-04-02 23:53:08,15.088475,0.0001589,53.2197,201.8647,96.5386,263.5787,-2.0407e-05,-6.13e-06,0.0,0 STARLINK-5021,1 53902U 22119S   24093.99523418 -.00000613  00000-0 -20407-4 0  9992,2 53902  53.2197 201.8647 0001589  96.5386 263.5787 15.08847500 85432,6917.857,95.437,540.822,538.623,0.0
53902.0,STARLINK-5021,PAYLOAD,2024-04-03 11:00:51,15.08828265,0.0001586,53.2189,199.7805,96.9839,263.1333,7.824e-05,9.57e-06,0.0,0 STARLINK-5021,1 53902U 22119S   24094.45892515  .00000957  00000-0  78240-4 0  9998,2 53902  53.2189 199.7805 0001586  96.9839 263.1333 15.08828265 85506,6917.916,95.438,540.878,538.684,0.0
53902.0,STARLINK-5021,PAYLOAD,2024-04-03 14:11:37,15.08829588,0.0001606,53.2195,199.1884,102.2355,257.8817,9.536e-05,1.23e-05,0.0,0 STARLINK-5021,1 53902U 22119S   24094.59140467  .00001230  00000-0  95360-4 0  9992,2 53902  53.2195 199.1884 0001606 102.2355 257.8817 15.08829588 85945,6917.912,95.438,540.888,538.666,0.0
53902.0,STARLINK-5021,PAYLOAD,2024-04-03 17:22:23,15.08831573,0.0001772,53.2178,198.5937,105.2118,254.907,0.00012802,1.75e-05,0.0,0 STARLINK-5021,1 53902U 22119S   24094.72388306  .00001750  00000-0  12802-3 0  9999,2 53902  53.2178 198.5937 0001772 105.2118 254.9070 15.08831573 85960,6917.906,95.438,540.997,538.545,0.0
53902.0,STARLINK-5021,PAYLOAD,2024-04-04 12:27:01,15.08833778,0.0001393,53.217,195.0237,96.7596,263.3555,5.3479e-05,5.63e-06,0.0,0 STARLINK-5021,1 53902U 22119S   24095.51876641  .00000563  00000-0  53479-4 0  9998,2 53902  53.2170 195.0237 0001393  96.7596 263.3555 15.08833778 85668,6917.899,95.438,540.728,538.801,0.0
53902.0,STARLINK-5021,PAYLOAD,2024-04-04 14:02:24,15.08834433,0.0001354,53.217,194.7261,94.6451,265.4695,5.6669e-05,6.14e-06,0.0,0 STARLINK-5021,1 53902U 22119S   24095.58500610  .00000614  00000-0  56669-4 0  9996,2 53902  53.2170 194.7261 0001354  94.6451 265.4695 15.08834433 86090,6917.897,95.438,540.699,538.826,0.0
53902.0,STARLINK-5021,PAYLOAD,2024-04-04 23:34:42,15.08842019,0.0001279,53.2163,192.9412,88.4061,271.7078,0.00013728,1.898e-05,0.0,0 STARLINK-5021,1 53902U 22119S   24095.98243908  .00001898  00000-0  13728-3 0  9997,2 53902  53.2163 192.9412 0001279  88.4061 271.7078 15.08842019 85738,6917.874,95.437,540.624,538.854,0.0
53902.0,STARLINK-5021,PAYLOAD,2024-04-05 13:53:10,15.08846973,0.0001534,53.2179,190.2642,93.6554,266.4613,0.00013068,1.793e-05,0.0,0 STARLINK-5021,1 53902U 22119S   24096.57859495  .00001793  00000-0  13068-3 0  9998,2 53902  53.2179 190.2642 0001534  93.6554 266.4613 15.08846973 86246,6917.859,95.437,540.785,538.663,0.0
53902.0,STARLINK-5021,PAYLOAD,2024-04-06 12:08:34,15.08844924,0.0001434,53.2174,186.1028,90.9834,269.1322,1.4688e-05,-5.4e-07,0.0,0 STARLINK-5021,1 53902U 22119S   24097.50595813 -.00000054  00000-0  14688-4 0  9993,2 53902  53.2174 186.1028 0001434  90.9834 269.1322 15.08844924 85962,6917.865,95.437,540.722,538.738,0.0
53902.0,STARLINK-5021,PAYLOAD,2024-04-07 11:59:22,15.08835371,0.0001538,53.2168,181.6435,83.0032,277.1135,-5.3215e-05,-1.135e-05,0.0,0 STARLINK-5021,1 53902U 22119S   24098.49956486 -.00001135  00000-0 -53215-4 0  9990,2 53902  53.2168 181.6435 0001538  83.0032 277.1135 15.08835371 86536,6917.895,95.438,540.824,538.696,0.0
53902.0,STARLINK-5021,PAYLOAD,2024-04-08 11:50:08,15.08879987,0.0001344,53.2179,177.1804,101.3153,258.799,-0.00047723,-7.883e-05,0.0,0 STARLINK-5021,1 53902U 22119S   24099.49315507 -.00007883  00000-0 -47723-3 0  9996,2 53902  53.2179 177.1804 0001344 101.3153 258.7990 15.08879987 86266,6917.758,95.435,540.553,538.693,0.0
53902.0,STARLINK-5021,PAYLOAD,2024-04-09 05:19:23,15.08835228,0.0001485,53.218,173.9094,92.9333,267.1829,0.00012672,1.729e-05,0.0,0 STARLINK-5021,1 53902U 22119S   24100.22180113  .00001729  00000-0  12672-3 0  9999,2 53902  53.2180 173.9094 0001485  92.9333 267.1829 15.08835228 86371,6917.895,95.438,540.787,538.733,0.0
53902.0,STARLINK-5021,PAYLOAD,2024-04-09 11:40:56,15.08833666,0.00014,53.2178,172.7198,92.8188,267.2964,0.0001183,1.595e-05,0.0,0 STARLINK-5021,1 53902U 22119S   24100.48676383  .00001595  00000-0  11830-3 0  9992,2 53902  53.2178 172.7198 0001400  92.8188 267.2964 15.08833666 86830,6917.9,95.438,540.733,538.796,0.0
53902.0,STARLINK-5021,PAYLOAD,2024-04-09 21:13:14,15.0884305,0.000139,53.2179,170.9349,92.1229,267.9922,0.00012009,1.624e-05,0.0,0 STARLINK-5021,1 53902U 22119S   24100.88419792  .00001624  00000-0  12009-3 0  9997,2 53902  53.2179 170.9349 0001390  92.1229 267.9922 15.08843050 86891,6917.871,95.437,540.698,538.774,0.0
53902.0,STARLINK-5021,PAYLOAD,2024-04-10 11:31:43,15.08837311,0.0001481,53.2189,168.2625,97.4989,262.6171,5.1649e-06,-2.06e-06,0.0,0 STARLINK-5021,1 53902U 22119S   24101.48036612 -.00000206  00000-0  51649-5 0  9991,2 53902  53.2189 168.2625 0001481  97.4989 262.6171 15.08837311 86566,6917.889,95.438,540.778,538.729,0.0
